{
    "links": {
        "self": "http://www.neowsapp.com/rest/v1/neo/54075592?api_key=iIulBulltgU6a56xZRHN4H3l9WmuAYTsLGpBGhQ2"
    },
    "id": "54075592",
    "neo_reference_id": "54075592",
    "name": "(2020 UW2)",
    "designation": "2020 UW2",
    "nasa_jpl_url": "http://ssd.jpl.nasa.gov/sbdb.cgi?sstr=54075592",
    "absolute_magnitude_h": 25.121,
    "estimated_diameter": {
        "kilometers": {
            "estimated_diameter_min": 0.025139404,
            "estimated_diameter_max": 0.0562134162
        },
        "meters": {
            "estimated_diameter_min": 25.1394039596,
            "estimated_diameter_max": 56.2134161675
        },
        "miles": {
            "estimated_diameter_min": 0.0156208966,
            "estimated_diameter_max": 0.0349293866
        },
        "feet": {
            "estimated_diameter_min": 82.4783620868,
            "estimated_diameter_max": 184.427224299
        }
    },
    "is_potentially_hazardous_asteroid": false,
    "close_approach_data": [
        {
            "close_approach_date": "2020-11-06",
            "close_approach_date_full": "2020-Nov-06 03:52",
            "epoch_date_close_approach": 1604634720000,
            "relative_velocity": {
                "kilometers_per_second": "6.1935157296",
                "kilometers_per_hour": "22296.6566266132",
                "miles_per_hour": "13854.2753355753"
            },
            "miss_distance": {
                "astronomical": "0.0373865848",
                "lunar": "14.5433814872",
                "kilometers": "5592953.452654376",
                "miles": "3475300.1236713488"
            },
            "orbiting_body": "Earth"
        },
        {
            "close_approach_date": "2021-04-11",
            "close_approach_date_full": "2021-Apr-11 04:02",
            "epoch_date_close_approach": 1618113720000,
            "relative_velocity": {
                "kilometers_per_second": "4.7849577119",
                "kilometers_per_hour": "17225.8477629448",
                "miles_per_hour": "10703.4719058142"
            },
            "miss_distance": {
                "astronomical": "0.2114996666",
                "lunar": "82.2733703074",
                "kilometers": "31639899.629070142",
                "miles": "19660121.9775342796"
            },
            "orbiting_body": "Earth"
        },
        {
            "close_approach_date": "2025-10-24",
            "close_approach_date_full": "2025-Oct-24 12:37",
            "epoch_date_close_approach": 1761309420000,
            "relative_velocity": {
                "kilometers_per_second": "10.8678735052",
                "kilometers_per_hour": "39124.3446188381",
                "miles_per_hour": "24310.3462438553"
            },
            "miss_distance": {
                "astronomical": "0.213152854",
                "lunar": "82.916460206",
                "kilometers": "31887212.94282098",
                "miles": "19813795.344770324"
            },
            "orbiting_body": "Earth"
        },
        {
            "close_approach_date": "2026-05-06",
            "close_approach_date_full": "2026-May-06 18:04",
            "epoch_date_close_approach": 1778090640000,
            "relative_velocity": {
                "kilometers_per_second": "5.9196075897",
                "kilometers_per_hour": "21310.587322966",
                "miles_per_hour": "13241.5702174285"
            },
            "miss_distance": {
                "astronomical": "0.2821427986",
                "lunar": "109.7535486554",
                "kilometers": "42207961.706398982",
                "miles": "26226811.2509586716"
            },
            "orbiting_body": "Earth"
        },
        {
            "close_approach_date": "2030-10-14",
            "close_approach_date_full": "2030-Oct-14 01:15",
            "epoch_date_close_approach": 1918170900000,
            "relative_velocity": {
                "kilometers_per_second": "16.3417499944",
                "kilometers_per_hour": "58830.2999797342",
                "miles_per_hour": "36554.8605624076"
            },
            "miss_distance": {
                "astronomical": "0.4041161661",
                "lunar": "157.2011886129",
                "kilometers": "60454917.681126207",
                "miles": "37564943.9374553766"
            },
            "orbiting_body": "Earth"
        }
    ],
    "orbital_data": {
        "orbit_id": "3",
        "orbit_determination_date": "2020-11-05 06:30:20",
        "first_observation_date": "2020-10-17",
        "last_observation_date": "2020-11-05",
        "data_arc_in_days": 19,
        "observations_used": 23,
        "orbit_uncertainty": "7",
        "minimum_orbit_intersection": ".00523055",
        "jupiter_tisserand_invariant": "5.411",
        "epoch_osculation": "2459000.5",
        "eccentricity": ".186894467169632",
        "semi_major_axis": "1.158779321642031",
        "inclination": "6.85422977367147",
        "ascending_node_longitude": "46.88326720456504",
        "orbital_period": "455.6165926401831",
        "perihelion_distance": ".9422098777565564",
        "perihelion_argument": "49.41828246528474",
        "aphelion_distance": "1.375348765527507",
        "perihelion_time": "2459204.255050157279",
        "mean_anomaly": "199.0053846995228",
        "mean_motion": ".7901380367073353",
        "equinox": "J2000",
        "orbit_class": {
            "orbit_class_type": "APO",
            "orbit_class_description": "Near-Earth asteroid orbits which cross the Earth’s orbit similar to that of 1862 Apollo",
            "orbit_class_range": "a (semi-major axis) > 1.0 AU; q (perihelion) < 1.017 AU"
        }
    },
    "is_sentry_object": false
}